OBJECT_NAME,OBJECT_ID,EPOCH,MEAN_MOTION,ECCENTRICITY,INCLINATION,RA_OF_ASC_NODE,ARG_OF_PERICENTER,MEAN_ANOMALY,EPHEMERIS_TYPE,CLASSIFICATION_TYPE,NORAD_CAT_ID,ELEMENT_SET_NO,REV_AT_EPOCH,BSTAR,MEAN_MOTION_DOT,MEAN_MOTION_DDOT
STARLINK-36555,2026-012E,2026-06-26T15:38:27.445056,15.27574997,.00004353,43.0032,59.2721,285.5706,74.5098,0,U,67497,999,2442,.58908898E-3,.15981E-3,0
STARLINK-36081,2026-012F,2026-06-26T23:19:59.593728,15.27567700,.00013717,43.0025,57.3822,260.1080,99.9617,0,U,67498,999,2447,.11353007E-2,.31099E-3,0
STARLINK-36558,2026-012G,2026-06-26T15:23:38.967936,15.27568421,.0001294,43.0012,59.1993,254.1684,105.9025,0,U,67499,999,2442,-.33237E-3,-.9393E-4,0
STARLINK-36557,2026-012H,2026-06-26T16:52:17.519520,15.27546138,.00010521,42.9987,58.7905,299.3544,60.7202,0,U,67500,999,2443,.62836624E-3,.17051E-3,0
STARLINK-36433,2026-012J,2026-06-26T23:03:19.203552,15.27565396,.00020189,43.0013,57.2794,268.6771,91.3849,0,U,67501,999,2447,-.42651325E-4,-.1435E-4,0
STARLINK-36554,2026-012K,2026-06-26T22:54:05.134176,15.27571448,.00011573,43.0011,57.2316,260.1295,99.9426,0,U,67502,999,2447,.10125581E-2,.27699E-3,0
STARLINK-36552,2026-012L,2026-06-26T16:31:53.565888,15.27585620,.00007085,42.9968,58.6757,46.2154,313.8756,0,U,67503,999,2443,.84097908E-3,.22956E-3,0
STARLINK-36512,2026-012M,2026-06-26T22:37:25.858560,15.27588713,.00015346,42.9998,57.1383,275.5738,84.4938,0,U,67504,999,2447,.7346587E-3,.20014E-3,0
STARLINK-36545,2026-012N,2026-06-26T22:31:53.045760,15.27584940,.00017434,43.0011,57.1098,280.0382,80.0273,0,U,67505,999,2447,.76556892E-3,.20868E-3,0
STARLINK-36553,2026-012P,2026-06-26T17:43:51.268512,15.27582718,.00020548,43.0018,58.1842,279.4541,80.6078,0,U,67506,999,2444,.58270341E-3,.15809E-3,0
STARLINK-36521,2026-012Q,2026-06-26T22:22:37.696800,15.27622469,.00016679,43.0033,57.0578,253.2489,106.8180,0,U,67507,999,2447,.10116769E-2,.27718E-3,0
STARLINK-36526,2026-012R,2026-06-26T22:17:04.631712,15.27593381,.00012928,43.0039,57.0261,92.4396,267.6604,0,U,67508,999,2447,.69370566E-3,.18884E-3,0
STARLINK-36541,2026-012S,2026-06-26T15:53:14.429184,15.27608527,.00018428,43.0059,59.3622,274.2995,85.7647,0,U,67509,999,2442,.6989349E-3,.19037E-3,0
STARLINK-36549,2026-012T,2026-06-26T22:18:54.402048,15.27594483,.00013372,43.0013,57.0211,257.8871,102.1831,0,U,67510,999,2447,.59339325E-3,.1611E-3,0
STARLINK-36540,2026-012U,2026-06-26T17:21:52.089984,15.27558767,.00010749,43.0025,58.9580,269.1502,90.9226,0,U,67511,999,2443,.72074287E-3,.19611E-3,0
STARLINK-36538,2026-012V,2026-06-26T17:14:25.786464,15.27625441,.00011759,43.0040,58.9009,267.6962,92.3755,0,U,67512,999,2443,.74703771E-3,.2038E-3,0
STARLINK-36531,2026-012W,2026-06-26T23:16:17.274432,15.27561085,.00012645,43.0015,57.3480,277.1357,82.9351,0,U,67513,999,2447,.1060444E-2,.29017E-3,0
STARLINK-36530,2026-012X,2026-06-26T23:10:44.072832,15.27562158,.00011495,43.0015,57.3197,264.4068,95.6653,0,U,67514,999,2447,.95282801E-3,.26036E-3,0
STARLINK-36543,2026-012Y,2026-06-26T23:05:09.740256,15.27566113,.00017685,43.0005,57.2901,285.8694,74.1963,0,U,67515,999,2447,-.97074359E-3,-.26868E-3,0
STARLINK-36537,2026-012Z,2026-06-26T22:50:20.633280,15.27635480,.00009953,43.0023,57.2032,235.8402,124.2356,0,U,67516,999,2447,.23229627E-2,.64329E-3,0
STARLINK-36544,2026-012AA,2026-06-26T22:59:38.206176,15.27572356,.00012764,43.0011,57.2543,262.3540,97.7167,0,U,67517,999,2447,.70405056E-3,.19158E-3,0
STARLINK-36412,2026-012AB,2026-06-26T22:33:43.607520,15.27566413,.00013753,43.0020,57.1124,261.6399,98.4297,0,U,67518,999,2447,.8056722E-3,.21965E-3,0
STARLINK-36415,2026-012AC,2026-06-26T22:28:10.509600,15.27562520,.00015192,43.0010,57.0746,275.4352,84.6327,0,U,67519,999,2447,.97785661E-3,.2673E-3,0
STARLINK-36547,2026-012AD,2026-06-26T22:39:15.672960,15.27572480,.00012877,43.0003,57.1416,278.6474,81.4232,0,U,67520,999,2447,-.58677962E-3,-.1637E-3,0
STARLINK-36444,2026-012AE,2026-06-26T22:44:49.362720,15.27571629,.00013438,42.9995,57.1738,249.4175,110.6532,0,U,67521,999,2447,.7200814E-5,-.64E-6,0
STARLINK-36587,2026-014A,2026-06-26T06:03:16.746624,15.33440368,.0001644,97.2841,63.8839,77.5969,282.5457,0,U,67532,999,2542,.43232E-3,.13906E-3,0
STARLINK-36417,2026-014B,2026-06-26T22:37:46.745760,15.33435406,.00017428,97.2864,64.4753,83.4901,276.6540,0,U,67533,999,2552,.62474827E-3,.20142E-3,0
STARLINK-36576,2026-014C,2026-06-26T22:22:07.082688,15.33440363,.00022292,97.2860,64.4918,99.4491,260.7004,0,U,67534,999,2552,.64101376E-3,.20674E-3,0
STARLINK-36574,2026-014D,2026-06-26T15:38:50.375616,15.33443293,.00031848,97.2864,64.2590,105.0795,255.0800,0,U,67535,999,2548,.6912699E-3,.22309E-3,0
STARLINK-36572,2026-014E,2026-06-26T09:54:16.966368,15.33419095,.0002146,97.2880,63.9731,103.5595,256.5887,0,U,67536,999,2544,.21594E-3,.6897E-4,0
