STARLINK-36555          
1 67497U 26012E   26177.65170654  .00015981  00000+0  58909-3 0  9998
2 67497  43.0032  59.2721 0000435 285.5706  74.5098 15.27574997 24429
STARLINK-36081          
1 67498U 26012F   26177.97221752  .00031099  00000+0  11353-2 0  9999
2 67498  43.0025  57.3822 0001371 260.1080  99.9617 15.27567700 24474
STARLINK-36558          
1 67499U 26012G   26177.64142324 -.00009393  00000+0 -33237-3 0  9991
2 67499  43.0012  59.1993 0001294 254.1684 105.9025 15.27568421 24424
STARLINK-36557          
1 67500U 26012H   26177.70298055  .00017051  00000+0  62837-3 0  9990
2 67500  42.9987  58.7905 0001052 299.3544  60.7202 15.27546138 24439
STARLINK-36433          
1 67501U 26012J   26177.96063893 -.00001435  00000+0 -42651-4 0  9993
2 67501  43.0013  57.2794 0002018 268.6771  91.3849 15.27565396 24474
STARLINK-36554          
1 67502U 26012K   26177.95422609  .00027699  00000+0  10126-2 0  9995
2 67502  43.0011  57.2316 0001157 260.1295  99.9426 15.27571448 24474
STARLINK-36552          
1 67503U 26012L   26177.68881442  .00022956  00000+0  84098-3 0  9991
2 67503  42.9968  58.6757 0000708  46.2154 313.8756 15.27585620 24433
STARLINK-36512          
1 67504U 26012M   26177.94266040  .00020014  00000+0  73466-3 0  9992
2 67504  42.9998  57.1383 0001534 275.5738  84.4938 15.27588713 24472
STARLINK-36545          
1 67505U 26012N   26177.93880840  .00020868  00000+0  76557-3 0  9993
2 67505  43.0011  57.1098 0001743 280.0382  80.0273 15.27584940 24474
STARLINK-36553          
1 67506U 26012P   26177.73878783  .00015809  00000+0  58270-3 0  9996
2 67506  43.0018  58.1842 0002054 279.4541  80.6078 15.27582718 24442
STARLINK-36521          
1 67507U 26012Q   26177.93238075  .00027718  00000+0  10117-2 0  9992
2 67507  43.0033  57.0578 0001667 253.2489 106.8180 15.27622469 24470
STARLINK-36526          
1 67508U 26012R   26177.92852583  .00018884  00000+0  69371-3 0  9999
2 67508  43.0039  57.0261 0001292  92.4396 267.6604 15.27593381 24477
STARLINK-36541          
1 67509U 26012S   26177.66197256  .00019037  00000+0  69893-3 0  9990
2 67509  43.0059  59.3622 0001842 274.2995  85.7647 15.27608527 24422
STARLINK-36549          
1 67510U 26012T   26177.92979632  .00016110  00000+0  59339-3 0  9990
2 67510  43.0013  57.0211 0001337 257.8871 102.1831 15.27594483 24471
STARLINK-36540          
1 67511U 26012U   26177.72351956  .00019611  00000+0  72074-3 0  9992
2 67511  43.0025  58.9580 0001074 269.1502  90.9226 15.27558767 24432
STARLINK-36538          
1 67512U 26012V   26177.71835401  .00020380  00000+0  74704-3 0  9991
2 67512  43.0040  58.9009 0001175 267.6962  92.3755 15.27625441 24438
STARLINK-36531          
1 67513U 26012W   26177.96964438  .00029017  00000+0  10604-2 0  9996
2 67513  43.0015  57.3480 0001264 277.1357  82.9351 15.27561085 24474
STARLINK-36530          
1 67514U 26012X   26177.96578788  .00026036  00000+0  95283-3 0  9991
2 67514  43.0015  57.3197 0001149 264.4068  95.6653 15.27562158 24478
STARLINK-36543          
1 67515U 26012Y   26177.96191829 -.00026868  00000+0 -97074-3 0  9994
2 67515  43.0005  57.2901 0001768 285.8694  74.1963 15.27566113 24470
STARLINK-36537          
1 67516U 26012Z   26177.95162770  .00064329  00000+0  23230-2 0  9991
2 67516  43.0023  57.2032 0000995 235.8402 124.2356 15.27635480 24476
STARLINK-36544          
1 67517U 26012AA  26177.95808109  .00019158  00000+0  70405-3 0  9992
2 67517  43.0011  57.2543 0001276 262.3540  97.7167 15.27572356 24478
STARLINK-36412          
1 67518U 26012AB  26177.94008805  .00021965  00000+0  80567-3 0  9996
2 67518  43.0020  57.1124 0001375 261.6399  98.4297 15.27566413 24476
STARLINK-36415          
1 67519U 26012AC  26177.93623275  .00026730  00000+0  97786-3 0  9996
2 67519  43.0010  57.0746 0001519 275.4352  84.6327 15.27562520 24473
STARLINK-36547          
1 67520U 26012AD  26177.94393140 -.00016370  00000+0 -58678-3 0  9992
2 67520  43.0003  57.1416 0001287 278.6474  81.4232 15.27572480 24470
STARLINK-36444          
1 67521U 26012AE  26177.94779355 -.00000064  00000+0  72008-5 0  9996
2 67521  42.9995  57.1738 0001343 249.4175 110.6532 15.27571629 24475
STARLINK-36587          
1 67532U 26014A   26177.25227716  .00013906  00000+0  43232-3 0  9996
2 67532  97.2841  63.8839 0001644  77.5969 282.5457 15.33440368 25424
STARLINK-36417          
1 67533U 26014B   26177.94290215  .00020142  00000+0  62475-3 0  9997
2 67533  97.2864  64.4753 0001742  83.4901 276.6540 15.33435406 25528
STARLINK-36576          
1 67534U 26014C   26177.93202642  .00020674  00000+0  64101-3 0  9992
2 67534  97.2860  64.4918 0002229  99.4491 260.7004 15.33440363 25527
STARLINK-36574          
1 67535U 26014D   26177.65197194  .00022309  00000+0  69127-3 0  9997
2 67535  97.2864  64.2590 0003184 105.0795 255.0800 15.33443293 25489
STARLINK-36572          
1 67536U 26014E   26177.41269637  .00006897  00000+0  21594-3 0  9994
2 67536  97.2880  63.9731 0002146 103.5595 256.5887 15.33419095 25449
